[
    {
        "Altitude(m)": 612513.9258800923,
        "Argument of Periapsis(deg)": 0.0,
        "Eccentricity": 0.0,
        "Inclination(deg)": 60.0,
        "Latitude(deg)": -28.13594472052554,
        "Longitude(deg)": -177.08693886334586,
        "Mean Anomaly(deg)": 212.7273,
        "RAAN(deg)": 85.00000000000001,
        "Satellite Name": "Test1 387",
        "Satellite Number": 387,
        "Semi-Major Axis(m)": 6980739.136638005,
        "Time(s)": 0
    },
    {
        "Altitude(m)": 612708.293984973,
        "Argument of Periapsis(deg)": 0.00010418945913296404,
        "Eccentricity": 0.0,
        "Inclination(deg)": 60.0,
        "Latitude(deg)": -28.6476845142707,
        "Longitude(deg)": -176.72970970835405,
        "Mean Anomaly(deg)": 213.34740614546186,
        "RAAN(deg)": 84.99957995086027,
        "Satellite Name": "Test1 387",
        "Satellite Number": 387,
        "Semi-Major Axis(m)": 6980739.136638005,
        "Time(s)": 10
    }
]